[{"OBJECT_NAME":"STARLINK-5999","OBJECT_ID":"2023-083AK","EPOCH":"2026-03-09T22:00:01.999584","MEAN_MOTION":15.07013342,"ECCENTRICITY":6.738e-5,"INCLINATION":43.0007,"RA_OF_ASC_NODE":67.916,"ARG_OF_PERICENTER":272.4181,"MEAN_ANOMALY":323.8788,"EPHEMERIS_TYPE":0,"CLASSIFICATION_TYPE":"U","NORAD_CAT_ID":56909,"ELEMENT_SET_NO":999,"REV_AT_EPOCH":567,"BSTAR":0.0039179222,"MEAN_MOTION_DOT":0.00059977,"MEAN_MOTION_DDOT":0},{"OBJECT_NAME":"SL-8 R\/B","OBJECT_ID":"1968-040B","EPOCH":"2026-03-09T18:37:46.369632","MEAN_MOTION":15.03260494,"ECCENTRICITY":0.00239141,"INCLINATION":74.0322,"RA_OF_ASC_NODE":313.5182,"ARG_OF_PERICENTER":137.361,"MEAN_ANOMALY":222.9441,"EPHEMERIS_TYPE":0,"CLASSIFICATION_TYPE":"U","NORAD_CAT_ID":3230,"ELEMENT_SET_NO":999,"REV_AT_EPOCH":9002,"BSTAR":0.00025747843,"MEAN_MOTION_DOT":3.469e-5,"MEAN_MOTION_DDOT":0}]
